{
  "type": "FeatureCollection",
  "features": [
    {
      "type": "Feature",
      "properties": {
        "norad_id": 35744,
        "name": "IRIDIUM 33 DEB",
        "group": "iridium-33-debris",
        "lat": -28.82676440909378,
        "lon": 147.72283410532037,
        "alt_km": 650.1897806124243,
        "timestamp": "2025-12-12T03:50:52.803564+00:00",
        "meta_object_name": "IRIDIUM 33 DEB",
        "meta_object_id": "1997-051RX",
        "meta_epoch": "2025-12-11T05:40:38.680320",
        "meta_mean_motion": 14.70964353,
        "meta_eccentricity": 0.00200948,
        "meta_inclination": 86.3293,
        "meta_ra_of_asc_node": 326.1153,
        "meta_arg_of_pericenter": 197.6231,
        "meta_mean_anomaly": 162.4291,
        "meta_ephemeris_type": 0,
        "meta_classification_type": "U",
        "meta_norad_cat_id": 35744,
        "meta_element_set_no": 999,
        "meta_rev_at_epoch": 87309,
        "meta_bstar": 0.0023208663,
        "meta_mean_motion_dot": 0.00014305,
        "meta_mean_motion_ddot": 0,
        "tle_line1": "1 35744U 97051RX  25345.23655880  .00014305  00000+0  23209-2 0  9991",
        "tle_line2": "2 35744  86.3293 326.1153 0020094 197.6231 162.4291 14.70964353873095"
      },
      "geometry": {
        "type": "Point",
        "coordinates": [
          147.72283410532037,
          -28.82676440909378
        ]
      }
    },
    {
      "type": "Feature",
      "properties": {
        "norad_id": 35797,
        "name": "IRIDIUM 33 DEB",
        "group": "iridium-33-debris",
        "lat": -85.72349948518685,
        "lon": -88.72641528855446,
        "alt_km": 633.1249269838227,
        "timestamp": "2025-12-12T03:50:52.803574+00:00",
        "meta_object_name": "IRIDIUM 33 DEB",
        "meta_object_id": "1997-051SF",
        "meta_epoch": "2025-12-11T05:34:05.709792",
        "meta_mean_motion": 14.82689252,
        "meta_eccentricity": 0.00131617,
        "meta_inclination": 86.3363,
        "meta_ra_of_asc_node": 330.6656,
        "meta_arg_of_pericenter": 152.8945,
        "meta_mean_anomaly": 207.2968,
        "meta_ephemeris_type": 0,
        "meta_classification_type": "U",
        "meta_norad_cat_id": 35797,
        "meta_element_set_no": 999,
        "meta_rev_at_epoch": 87318,
        "meta_bstar": 0.0027879355,
        "meta_mean_motion_dot": 0.00022588,
        "meta_mean_motion_ddot": 0,
        "tle_line1": "1 35797U 97051SF  25345.23201053  .00022588  00000+0  27879-2 0  9997",
        "tle_line2": "2 35797  86.3363 330.6656 0013161 152.8945 207.2968 14.82689252873185"
      },
      "geometry": {
        "type": "Point",
        "coordinates": [
          -88.72641528855446,
          -85.72349948518685
        ]
      }
    },
    {
      "type": "Feature",
      "properties": {
        "norad_id": 35806,
        "name": "IRIDIUM 33 DEB",
        "group": "iridium-33-debris",
        "lat": -86.22588483890297,
        "lon": -54.87224570687566,
        "alt_km": 720.3044598537062,
        "timestamp": "2025-12-12T03:50:52.803586+00:00",
        "meta_object_name": "IRIDIUM 33 DEB",
        "meta_object_id": "1997-051SQ",
        "meta_epoch": "2025-12-10T20:56:47.284800",
        "meta_mean_motion": 14.5731398,
        "meta_eccentricity": 0.0016091,
        "meta_inclination": 86.344,
        "meta_ra_of_asc_node": 21.4504,
        "meta_arg_of_pericenter": 81.1516,
        "meta_mean_anomaly": 279.1514,
        "meta_ephemeris_type": 0,
        "meta_classification_type": "U",
        "meta_norad_cat_id": 35806,
        "meta_element_set_no": 999,
        "meta_rev_at_epoch": 86297,
        "meta_bstar": 0.0016785,
        "meta_mean_motion_dot": 7.632e-05,
        "meta_mean_motion_ddot": 0,
        "tle_line1": "1 35806U 97051SQ  25344.87276950  .00007632  00000+0  16785-2 0  9992",
        "tle_line2": "2 35806  86.3440  21.4504 0016091  81.1516 279.1514 14.57313980862976"
      },
      "geometry": {
        "type": "Point",
        "coordinates": [
          -54.87224570687566,
          -86.22588483890297
        ]
      }
    },
    {
      "type": "Feature",
      "properties": {
        "norad_id": 35809,
        "name": "IRIDIUM 33 DEB",
        "group": "iridium-33-debris",
        "lat": -57.07781909264377,
        "lon": 161.30359450690548,
        "alt_km": 643.4297911321046,
        "timestamp": "2025-12-12T03:50:52.803603+00:00",
        "meta_object_name": "IRIDIUM 33 DEB",
        "meta_object_id": "1997-051ST",
        "meta_epoch": "2025-12-10T16:35:56.421600",
        "meta_mean_motion": 14.75629145,
        "meta_eccentricity": 0.00097103,
        "meta_inclination": 86.329,
        "meta_ra_of_asc_node": 336.2813,
        "meta_arg_of_pericenter": 251.0565,
        "meta_mean_anomaly": 108.9602,
        "meta_ephemeris_type": 0,
        "meta_classification_type": "U",
        "meta_norad_cat_id": 35809,
        "meta_element_set_no": 999,
        "meta_rev_at_epoch": 86777,
        "meta_bstar": 0.0026432017,
        "meta_mean_motion_dot": 0.00018102,
        "meta_mean_motion_ddot": 0,
        "tle_line1": "1 35809U 97051ST  25344.69162525  .00018102  00000+0  26432-2 0  9991",
        "tle_line2": "2 35809  86.3290 336.2813 0009710 251.0565 108.9602 14.75629145867777"
      },
      "geometry": {
        "type": "Point",
        "coordinates": [
          161.30359450690548,
          -57.07781909264377
        ]
      }
    },
    {
      "type": "Feature",
      "properties": {
        "norad_id": 35846,
        "name": "IRIDIUM 33 DEB",
        "group": "iridium-33-debris",
        "lat": 84.61197484445259,
        "lon": 101.32317506223987,
        "alt_km": 739.6527140801172,
        "timestamp": "2025-12-12T03:50:52.803614+00:00",
        "meta_object_name": "IRIDIUM 33 DEB",
        "meta_object_id": "1997-051SW",
        "meta_epoch": "2025-12-10T23:09:37.938816",
        "meta_mean_motion": 14.43148066,
        "meta_eccentricity": 0.0018649,
        "meta_inclination": 86.3748,
        "meta_ra_of_asc_node": 59.598,
        "meta_arg_of_pericenter": 175.7823,
        "meta_mean_anomaly": 184.3539,
        "meta_ephemeris_type": 0,
        "meta_classification_type": "U",
        "meta_norad_cat_id": 35846,
        "meta_element_set_no": 999,
        "meta_rev_at_epoch": 71303,
        "meta_bstar": 0.00091839,
        "meta_mean_motion_dot": 3.109e-05,
        "meta_mean_motion_ddot": 0,
        "tle_line1": "1 35846U 97051SW  25344.96502244  .00003109  00000+0  91839-3 0  9993",
        "tle_line2": "2 35846  86.3748  59.5980 0018649 175.7823 184.3539 14.43148066713035"
      },
      "geometry": {
        "type": "Point",
        "coordinates": [
          101.32317506223987,
          84.61197484445259
        ]
      }
    },
    {
      "type": "Feature",
      "properties": {
        "norad_id": 35848,
        "name": "IRIDIUM 33 DEB",
        "group": "iridium-33-debris",
        "lat": -3.7377457290914333,
        "lon": -163.3781816998013,
        "alt_km": 632.0977529910733,
        "timestamp": "2025-12-12T03:50:52.803624+00:00",
        "meta_object_name": "IRIDIUM 33 DEB",
        "meta_object_id": "1997-051SY",
        "meta_epoch": "2025-12-10T20:09:33.946272",
        "meta_mean_motion": 14.78567105,
        "meta_eccentricity": 0.0007483,
        "meta_inclination": 86.391,
        "meta_ra_of_asc_node": 16.979,
        "meta_arg_of_pericenter": 196.6944,
        "meta_mean_anomaly": 163.4031,
        "meta_ephemeris_type": 0,
        "meta_classification_type": "U",
        "meta_norad_cat_id": 35848,
        "meta_element_set_no": 999,
        "meta_rev_at_epoch": 66662,
        "meta_bstar": 0.0024266,
        "meta_mean_motion_dot": 0.00017798,
        "meta_mean_motion_ddot": 0,
        "tle_line1": "1 35848U 97051SY  25344.83997623  .00017798  00000+0  24266-2 0  9998",
        "tle_line2": "2 35848  86.3910  16.9790 0007483 196.6944 163.4031 14.78567105666628"
      },
      "geometry": {
        "type": "Point",
        "coordinates": [
          -163.3781816998013,
          -3.7377457290914333
        ]
      }
    },
    {
      "type": "Feature",
      "properties": {
        "norad_id": 35850,
        "name": "IRIDIUM 33 DEB",
        "group": "iridium-33-debris",
        "lat": 30.895788891435647,
        "lon": 162.3199377038658,
        "alt_km": 626.9745474256379,
        "timestamp": "2025-12-12T03:50:52.803634+00:00",
        "meta_object_name": "IRIDIUM 33 DEB",
        "meta_object_id": "1997-051TA",
        "meta_epoch": "2025-12-06T07:30:15.621984",
        "meta_mean_motion": 14.78601393,
        "meta_eccentricity": 0.00083892,
        "meta_inclination": 86.3487,
        "meta_ra_of_asc_node": 347.1693,
        "meta_arg_of_pericenter": 210.267,
        "meta_mean_anomaly": 149.8067,
        "meta_ephemeris_type": 0,
        "meta_classification_type": "U",
        "meta_norad_cat_id": 35850,
        "meta_element_set_no": 999,
        "meta_rev_at_epoch": 71262,
        "meta_bstar": 0.0028291764,
        "meta_mean_motion_dot": 0.00020775,
        "meta_mean_motion_ddot": 0,
        "tle_line1": "1 35850U 97051TA  25340.31268081  .00020775  00000+0  28292-2 0  9991",
        "tle_line2": "2 35850  86.3487 347.1693 0008389 210.2670 149.8067 14.78601393712623"
      },
      "geometry": {
        "type": "Point",
        "coordinates": [
          162.3199377038658,
          30.895788891435647
        ]
      }
    }
  ]
}